STARLINK-36846
1 67894U 26035R   26092.32123998  .00336915  00000+0  21672-2 0  9992
2 67894  97.2879  25.8860 0002501  84.6562 275.4988 15.75238490  7561
STARLINK-36866
1 67895U 26035S   26092.75815265  .00267365  00000+0  17285-2 0  9992
2 67895  97.2878  26.3627 0001478  98.1033 262.0400 15.75314576  7632
STARLINK-36877
1 67896U 26035T   26092.54217311  .00216721  00000+0  14122-2 0  9995
2 67896  97.2890  26.1990 0002114  50.5382 309.6070 15.75272254  7609
STARLINK-36870
1 67897U 26035U   26092.54887393  .00208914  00000+0  13630-2 0  9997
2 67897  97.2889  26.1883 0001197  89.6021 270.5382 15.75266527  7600
STARLINK-36810
1 67898U 26035V   26092.55805066  .00258040  00000+0  16735-2 0  9990
2 67898  97.2893  26.1738 0001536 101.6752 258.4686 15.75268106  7605
STARLINK-36878
1 67899U 26035W   26092.53122986  .00391618  00000+0  24932-2 0  9999
2 67899  97.2862  26.2141 0001519  82.7327 277.4111 15.75325762  7605
STARLINK-36361
1 67900U 26035X   26092.34311926  .00226070  00000+0  14716-2 0  9993
2 67900  97.2879  26.0113 0002167 110.6351 249.5146 15.75270686  7579
STARLINK-36336
1 67901U 26035Y   26092.55205030  .00213921  00000+0  13942-2 0  9996
2 67901  97.2902  26.1834 0001645  90.5569 269.5884 15.75276665  7603
STARLINK-36876
1 67902U 26035Z   26092.53970377  .00336635  00000+0  21637-2 0  9996
2 67902  97.2884  26.2024 0002050  88.1938 271.9562 15.75257257  7605
STARLINK-36257
1 67903U 26035AA  26092.37840651  .00225366  00000+0  14675-2 0  9992
2 67903  97.2882  25.9613 0001597 109.2556 250.8882 15.75265263  7573
STARLINK-36938
1 68124U 26044Z   26092.87751586  .00429364  00000+0  27245-2 0  9992
2 68124  97.2863  54.3006 0001444 122.8979 237.2425 15.75297394  5290
STARLINK-36604
1 68142U 26049A   26092.83335647 -.00030246  00000+0 -20258-3 0  9996
2 68142  97.2854 113.2867 0001553  82.7947 143.7882 15.75194826  4518
STARLINK-36995
1 68143U 26049B   26092.83335647 -.00151711  00000+0 -10324-2 0  9990
2 68143  97.2854 113.2977 0001207  98.1450 154.4307 15.75234661  4509
STARLINK-36244
1 68145U 26049D   26092.80257616  .00168976  00000+0  11080-2 0  9997
2 68145  97.2852 113.2296 0001460  68.4522 291.6899 15.75263375  3215
STARLINK-37073
1 68151U 26049K   26092.83335647 -.00139756  00000+0 -95006-3 0  9995
2 68151  97.2854 113.3110 0001466  84.4620 200.1090 15.75224298  4505
STARLINK-37072
1 68153U 26049M   26092.83335647 -.00151313  00000+0 -10299-2 0  9990
2 68153  97.2855 113.3030 0001371  92.3993 172.1724 15.75227530  4509
STARLINK-36241
1 68154U 26049N   26092.79869515  .00183194  00000+0  11990-2 0  9991
2 68154  97.2850 113.2349 0001568  91.6863 268.4582 15.75265342  3214
STARLINK-37069
1 68158U 26049S   26092.79516484  .00156795  00000+0  10297-2 0  9995
2 68158  97.2852 113.2401 0001362  78.9251 281.2168 15.75261129  3212
STARLINK-36306
1 68160U 26049U   26092.79128000  .00373842  00000+0  23830-2 0  9992
2 68160  97.2849 113.2456 0001170 103.7166 256.4230 15.75345798  3219
STARLINK-36958
1 68163U 26049X   26092.83335647 -.00061295  00000+0 -41307-3 0  9995
2 68163  97.2839 113.3406 0001194  81.7587 272.7711 15.75187954  4501
STARLINK-36971
1 68165U 26049Z   26092.83335647 -.00223364  00000+0 -15288-2 0  9992
2 68165  97.2848 113.3262 0001379 115.7476 202.7730 15.75298548  4509
STARLINK-36273
1 68166U 26049AA  26092.79057243  .00100484  00000+0  66477-3 0  9993
2 68166  97.2849 113.2463 0001198  79.2084 280.9316 15.75255646  3218
STARLINK-37081
1 68229U 26053Y   26092.83335647 -.00177449  00000+0 -12100-2 0  9990
2 68229  97.2841 328.3151 0001236  94.2118 182.0425 15.75259276  3891
